{
  "type": "FeatureCollection",
  "features": [
    {
      "type": "Feature",
      "properties": {
        "norad_id": 54741,
        "name": "GALAXY 35 (G-35)",
        "group": "intelsat",
        "lat": -0.00918326182538402,
        "lon": -73.38572825486493,
        "alt_km": 35776.69550119542,
        "timestamp": "2025-12-25T19:00:39.016183+00:00",
        "meta_object_name": "GALAXY 35 (G-35)",
        "meta_object_id": "2022-170A",
        "meta_epoch": "2025-12-24T22:55:44.590080",
        "meta_mean_motion": 1.00271199,
        "meta_eccentricity": 0.00023051,
        "meta_inclination": 0.0288,
        "meta_ra_of_asc_node": 246.2367,
        "meta_arg_of_pericenter": 29.6391,
        "meta_mean_anomaly": 68.6906,
        "meta_ephemeris_type": 0,
        "meta_classification_type": "U",
        "meta_norad_cat_id": 54741,
        "meta_element_set_no": 999,
        "meta_rev_at_epoch": 1114,
        "meta_bstar": 0,
        "meta_mean_motion_dot": -1.41e-06,
        "meta_mean_motion_ddot": 0,
        "tle_line1": "1 54741U 22170A   25358.95537720 -.00000141  00000+0  00000+0 0  9999",
        "tle_line2": "2 54741   0.0288 246.2367 0002305  29.6391  68.6906  1.00271199 11143"
      },
      "geometry": {
        "type": "Point",
        "coordinates": [
          -73.38572825486493,
          -0.00918326182538402
        ]
      }
    },
    {
      "type": "Feature",
      "properties": {
        "norad_id": 54742,
        "name": "GALAXY 36 (G-36)",
        "group": "intelsat",
        "lat": -0.018541338400759107,
        "lon": -69.29190404802587,
        "alt_km": 35785.09718933909,
        "timestamp": "2025-12-25T19:00:39.016194+00:00",
        "meta_object_name": "GALAXY 36 (G-36)",
        "meta_object_id": "2022-170B",
        "meta_epoch": "2025-12-25T00:45:14.126400",
        "meta_mean_motion": 1.00272273,
        "meta_eccentricity": 3.465e-05,
        "meta_inclination": 0.0122,
        "meta_ra_of_asc_node": 82.1613,
        "meta_arg_of_pericenter": 260.7471,
        "meta_mean_anomaly": 33.2048,
        "meta_ephemeris_type": 0,
        "meta_classification_type": "U",
        "meta_norad_cat_id": 54742,
        "meta_element_set_no": 999,
        "meta_rev_at_epoch": 1102,
        "meta_bstar": 0,
        "meta_mean_motion_dot": -1.64e-06,
        "meta_mean_motion_ddot": 0,
        "tle_line1": "1 54742U 22170B   25359.03141350 -.00000164  00000+0  00000+0 0  9995",
        "tle_line2": "2 54742   0.0122  82.1613 0000346 260.7471  33.2048  1.00272273 11028"
      },
      "geometry": {
        "type": "Point",
        "coordinates": [
          -69.29190404802587,
          -0.018541338400759107
        ]
      }
    },
    {
      "type": "Feature",
      "properties": {
        "norad_id": 57493,
        "name": "GALAXY 37 (G-37)",
        "group": "intelsat",
        "lat": -0.030210558803753867,
        "lon": -107.31561750275452,
        "alt_km": 35778.04497263315,
        "timestamp": "2025-12-25T19:00:39.016205+00:00",
        "meta_object_name": "GALAXY 37 (G-37)",
        "meta_object_id": "2023-112A",
        "meta_epoch": "2025-12-25T03:54:15.996960",
        "meta_mean_motion": 1.0027171,
        "meta_eccentricity": 0.00020864,
        "meta_inclination": 0.0153,
        "meta_ra_of_asc_node": 17.2695,
        "meta_arg_of_pericenter": 260.2398,
        "meta_mean_anomaly": 107.9755,
        "meta_ephemeris_type": 0,
        "meta_classification_type": "U",
        "meta_norad_cat_id": 57493,
        "meta_element_set_no": 999,
        "meta_rev_at_epoch": 879,
        "meta_bstar": 0,
        "meta_mean_motion_dot": 6.9e-07,
        "meta_mean_motion_ddot": 0,
        "tle_line1": "1 57493U 23112A   25359.16268515  .00000069  00000+0  00000+0 0  9998",
        "tle_line2": "2 57493   0.0153  17.2695 0002086 260.2398 107.9755  1.00271710  8792"
      },
      "geometry": {
        "type": "Point",
        "coordinates": [
          -107.31561750275452,
          -0.030210558803753867
        ]
      }
    }
  ]
}